KUIPER-00079            
1 64826U 25151L   25239.58335648  .00041477  00000+0  18369-2 0  9994
2 64826  51.8847  84.3983 0007157 305.1491  63.3514 15.21217476  3707
KUIPER-00080            
1 64827U 25151M   25239.58335648  .00036330  00000+0  15554-2 0  9990
2 64827  51.8855  84.4080 0002719 316.4673  93.5248 15.22450921  4527
KUIPER-00082            
1 64828U 25151N   25239.30060520  .00040551  00000+0  11316-2 0  9997
2 64828  51.8794  84.8378 0006191 283.6520  76.3777 15.36323023  6455
KUIPER-00083            
1 64829U 25151P   25239.58335648  .00050180  00000+0  15691-2 0  9993
2 64829  51.8792  83.6135 0006514 296.0196 113.7112 15.32635628  5617
KUIPER-00084            
1 64830U 25151Q   25239.58335648  .00026325  00000+0  15797-2 0  9996
2 64830  51.8897  86.4835 0009048 290.6806 118.9494 15.10723845  4485
KUIPER-00085            
1 64831U 25151R   25239.29671817  .00046148  00000+0  12740-2 0  9996
2 64831  51.8790  84.8165 0006998 285.0224  74.9987 15.36593987  6456
KUIPER-00086            
1 64832U 25151S   25239.58335648  .00008231  00000+0  31746-3 0  9997
2 64832  51.8801  83.9197 0008761 297.8035 314.5496 15.27130285  5259
KUIPER-00087            
1 64833U 25151T   25237.80731017  .00028125  00000+0  79213-3 0  9996
2 64833  51.8785  92.0844 0005461 294.5970  65.4447 15.36220666  6226
